{"type": "FeatureCollection", "features": [ {"type": "Feature", "properties": {"norad_id": 32460, "name": "FENGYUN 1C DEB", "group": "fengyun-1c-debris", "lat": 39.145367790941854, "lon": -35.844315277716504, "alt_km": 814.4360509071676, "timestamp": "2025-12-19T06:59:44.194965+00:00", "meta": {"OBJECT_NAME": "FENGYUN 1C DEB", "OBJECT_ID": "1999-025DBY", "EPOCH": "2025-12-16T16:07:35.360256", "MEAN_MOTION": 13.89589165, "ECCENTRICITY": 0.01851829, "INCLINATION": 98.0198, "RA_OF_ASC_NODE": 135.3065, "ARG_OF_PERICENTER": 113.3101, "MEAN_ANOMALY": 248.7668, "EPHEMERIS_TYPE": 0, "CLASSIFICATION_TYPE": "U", "NORAD_CAT_ID": 32460, "ELEMENT_SET_NO": 999, "REV_AT_EPOCH": 65308, "BSTAR": 0.0008481014, "MEAN_MOTION_DOT": 1.158e-05, "MEAN_MOTION_DDOT": 0}, "tle": {"line1": "1 32460U 99025DBY 25350.67193704  .00001158  00000+0  84810-3 0  9990", "line2": "2 32460  98.0198 135.3065 0185182 113.3101 248.7668 13.89589165653088"}}, "geometry": {"type": "Point", "coordinates": [-35.844315277716504, 39.145367790941854]}}, {"type": "Feature", "properties": {"norad_id": 32461, "name": "FENGYUN 1C DEB", "group": "fengyun-1c-debris", "lat": -28.23025354934722, "lon": 23.11141500859551, "alt_km": 1047.6158215149853, "timestamp": "2025-12-19T06:59:44.194975+00:00", "meta": {"OBJECT_NAME": "FENGYUN 1C DEB", "OBJECT_ID": "1999-025DBZ", "EPOCH": "2025-12-17T02:15:31.192128", "MEAN_MOTION": 13.72843893, "ECCENTRICITY": 0.02323804, "INCLINATION": 98.3342, "RA_OF_ASC_NODE": 205.71, "ARG_OF_PERICENTER": 105.2455, "MEAN_ANOMALY": 46.6373, "EPHEMERIS_TYPE": 0, "CLASSIFICATION_TYPE": "U", "NORAD_CAT_ID": 32461, "ELEMENT_SET_NO": 999, "REV_AT_EPOCH": 67354, "BSTAR": 0.0011039273, "MEAN_MOTION_DOT": 1.2e-05, "MEAN_MOTION_DDOT": 0}, "tle": {"line1": "1 32461U 99025DBZ 25351.09411102  .00001200  00000+0  11039-2 0  9993", "line2": "2 32461  98.3342 205.7100 0232380 105.2455  46.6373 13.72843893673544"}}, "geometry": {"type": "Point", "coordinates": [23.11141500859551, -28.23025354934722]}}, {"type": "Feature", "properties": {"norad_id": 32464, "name": "FENGYUN 1C DEB", "group": "fengyun-1c-debris", "lat": -57.299865458521026, "lon": -174.42157625066335, "alt_km": 523.7896959389091, "timestamp": "2025-12-19T06:59:44.194985+00:00", "meta": {"OBJECT_NAME": "FENGYUN 1C DEB", "OBJECT_ID": "1999-025DCC", "EPOCH": "2025-12-16T07:09:36.734976", "MEAN_MOTION": 14.9303829, "ECCENTRICITY": 0.01123489, "INCLINATION": 97.3567, "RA_OF_ASC_NODE": 14.3879, "ARG_OF_PERICENTER": 224.0102, "MEAN_ANOMALY": 135.2133, "EPHEMERIS_TYPE": 0, "CLASSIFICATION_TYPE": "U", "NORAD_CAT_ID": 32464, "ELEMENT_SET_NO": 999, "REV_AT_EPOCH": 60845, "BSTAR": 0.00088160326, "MEAN_MOTION_DOT": 0.00010328, "MEAN_MOTION_DDOT": 0}, "tle": {"line1": "1 32464U 99025DCC 25350.29834184  .00010328  00000+0  88160-3 0  9997", "line2": "2 32464  97.3567  14.3879 0112348 224.0102 135.2133 14.93038290608450"}}, "geometry": {"type": "Point", "coordinates": [-174.42157625066335, -57.299865458521026]}}, {"type": "Feature", "properties": {"norad_id": 33502, "name": "FENGYUN 1C DEB", "group": "fengyun-1c-debris", "lat": -58.28506576854622, "lon": 101.29446743388655, "alt_km": 840.964003404587, "timestamp": "2025-12-19T06:59:44.194995+00:00", "meta": {"OBJECT_NAME": "FENGYUN 1C DEB", "OBJECT_ID": "1999-025DCF", "EPOCH": "2025-12-18T20:00:21.371616", "MEAN_MOTION": 14.21923508, "ECCENTRICITY": 0.00797359, "INCLINATION": 99.026, "RA_OF_ASC_NODE": 295.7309, "ARG_OF_PERICENTER": 135.0625, "MEAN_ANOMALY": 280.7966, "EPHEMERIS_TYPE": 0, "CLASSIFICATION_TYPE": "U", "NORAD_CAT_ID": 33502, "ELEMENT_SET_NO": 999, "REV_AT_EPOCH": 87042, "BSTAR": 0.0018331659, "MEAN_MOTION_DOT": 4.134e-05, "MEAN_MOTION_DDOT": 0}, "tle": {"line1": "1 33502U 99025DCF 25352.83358069  .00004134  00000+0  18332-2 0  9997", "line2": "2 33502  99.0260 295.7309 0079735 135.0625 280.7966 14.21923508870423"}}, "geometry": {"type": "Point", "coordinates": [101.29446743388655, -58.28506576854622]}}, {"type": "Feature", "properties": {"norad_id": 33599, "name": "FENGYUN 1C DEB", "group": "fengyun-1c-debris", "lat": -30.94395559252235, "lon": -123.77991149380269, "alt_km": 488.3889683604257, "timestamp": "2025-12-19T06:59:44.195005+00:00", "meta": {"OBJECT_NAME": "FENGYUN 1C DEB", "OBJECT_ID": "1999-025DCG", "EPOCH": "2025-12-06T10:36:41.156064", "MEAN_MOTION": 15.14898296, "ECCENTRICITY": 0.0126212, "INCLINATION": 96.6136, "RA_OF_ASC_NODE": 49.0151, "ARG_OF_PERICENTER": 322.3863, "MEAN_ANOMALY": 36.8593, "EPHEMERIS_TYPE": 0, "CLASSIFICATION_TYPE": "U", "NORAD_CAT_ID": 33599, "ELEMENT_SET_NO": 999, "REV_AT_EPOCH": 65908, "BSTAR": 0.0016783, "MEAN_MOTION_DOT": 0.00038297, "MEAN_MOTION_DDOT": 0}, "tle": {"line1": "1 33599U 99025DCG 25340.44214301  .00038297  00000+0  16783-2 0  9992", "line2": "2 33599  96.6136  49.0151 0126212 322.3863  36.8593 15.14898296659088"}}, "geometry": {"type": "Point", "coordinates": [-123.77991149380269, -30.94395559252235]}}, {"type": "Feature", "properties": {"norad_id": 33601, "name": "FENGYUN 1C DEB", "group": "fengyun-1c-debris", "lat": -53.35022271732258, "lon": 160.30582141726828, "alt_km": 988.1549440798053, "timestamp": "2025-12-19T06:59:44.195015+00:00", "meta": {"OBJECT_NAME": "FENGYUN 1C DEB", "OBJECT_ID": "1999-025DCJ", "EPOCH": "2025-12-16T22:58:28.321536", "MEAN_MOTION": 14.0793263, "ECCENTRICITY": 0.01584896, "INCLINATION": 98.3139, "RA_OF_ASC_NODE": 146.8203, "ARG_OF_PERICENTER": 130.619, "MEAN_ANOMALY": 230.8891, "EPHEMERIS_TYPE": 0, "CLASSIFICATION_TYPE": "U", "NORAD_CAT_ID": 33601, "ELEMENT_SET_NO": 999, "REV_AT_EPOCH": 90739, "BSTAR": 0.00093349345, "MEAN_MOTION_DOT": 1.741e-05, "MEAN_MOTION_DDOT": 0}, "tle": {"line1": "1 33601U 99025DCJ 25350.95727224  .00001741  00000+0  93349-3 0  9994", "line2": "2 33601  98.3139 146.8203 0158489 130.6190 230.8891 14.07932630907391"}}, "geometry": {"type": "Point", "coordinates": [160.30582141726828, -53.35022271732258]}}, {"type": "Feature", "properties": {"norad_id": 33603, "name": "FENGYUN 1C DEB", "group": "fengyun-1c-debris", "lat": -53.988273354299835, "lon": 97.29824259005186, "alt_km": 790.7209592561921, "timestamp": "2025-12-19T06:59:44.195025+00:00", "meta": {"OBJECT_NAME": "FENGYUN 1C DEB", "OBJECT_ID": "1999-025DCL", "EPOCH": "2025-12-17T02:01:19.238016", "MEAN_MOTION": 14.79943071, "ECCENTRICITY": 0.02204054, "INCLINATION": 98.8049, "RA_OF_ASC_NODE": 287.1909, "ARG_OF_PERICENTER": 58.8724, "MEAN_ANOMALY": 303.3901, "EPHEMERIS_TYPE": 0, "CLASSIFICATION_TYPE": "U", "NORAD_CAT_ID": 33603, "ELEMENT_SET_NO": 999, "REV_AT_EPOCH": 98924, "BSTAR": 0.00019375833, "MEAN_MOTION_DOT": 2.138e-05, "MEAN_MOTION_DDOT": 0}, "tle": {"line1": "1 33603U 99025DCL 25351.08425044  .00002138  00000+0  19376-3 0  9995", "line2": "2 33603  98.8049 287.1909 0220405  58.8724 303.3901 14.79943071989244"}}, "geometry": {"type": "Point", "coordinates": [97.29824259005186, -53.988273354299835]}}, {"type": "Feature", "properties": {"norad_id": 33605, "name": "FENGYUN 1C DEB", "group": "fengyun-1c-debris", "lat": -56.52254935671396, "lon": 158.6859215927308, "alt_km": 915.408975390561, "timestamp": "2025-12-19T06:59:44.195035+00:00", "meta": {"OBJECT_NAME": "FENGYUN 1C DEB", "OBJECT_ID": "1999-025DCN", "EPOCH": "2025-12-10T07:01:31.719072", "MEAN_MOTION": 14.0776111, "ECCENTRICITY": 0.0057186, "INCLINATION": 98.6977, "RA_OF_ASC_NODE": 343.4026, "ARG_OF_PERICENTER": 81.9564, "MEAN_ANOMALY": 295.3635, "EPHEMERIS_TYPE": 0, "CLASSIFICATION_TYPE": "U", "NORAD_CAT_ID": 33605, "ELEMENT_SET_NO": 999, "REV_AT_EPOCH": 59784, "BSTAR": 0.00085517, "MEAN_MOTION_DOT": 1.428e-05, "MEAN_MOTION_DDOT": 0}, "tle": {"line1": "1 33605U 99025DCN 25344.29272823  .00001428  00000+0  85517-3 0  9998", "line2": "2 33605  98.6977 343.4026 0057186  81.9564 295.3635 14.07761110597841"}}, "geometry": {"type": "Point", "coordinates": [158.6859215927308, -56.52254935671396]}}, {"type": "Feature", "properties": {"norad_id": 33612, "name": "FENGYUN 1C DEB", "group": "fengyun-1c-debris", "lat": 63.187002571833865, "lon": 159.57312134551051, "alt_km": 800.04167603533, "timestamp": "2025-12-19T06:59:44.195045+00:00", "meta": {"OBJECT_NAME": "FENGYUN 1C DEB", "OBJECT_ID": "1999-025DCV", "EPOCH": "2025-12-13T20:28:43.869792", "MEAN_MOTION": 14.04084486, "ECCENTRICITY": 0.01112826, "INCLINATION": 98.5972, "RA_OF_ASC_NODE": 317.0094, "ARG_OF_PERICENTER": 105.6891, "MEAN_ANOMALY": 255.6586, "EPHEMERIS_TYPE": 0, "CLASSIFICATION_TYPE": "U", "NORAD_CAT_ID": 33612, "ELEMENT_SET_NO": 999, "REV_AT_EPOCH": 56689, "BSTAR": 0.0022025481, "MEAN_MOTION_DOT": 3.646e-05, "MEAN_MOTION_DDOT": 0}, "tle": {"line1": "1 33612U 99025DCV 25347.85328553  .00003646  00000+0  22025-2 0  9991", "line2": "2 33612  98.5972 317.0094 0111282 105.6891 255.6586 14.04084486566896"}}, "geometry": {"type": "Point", "coordinates": [159.57312134551051, 63.187002571833865]}}, {"type": "Feature", "properties": {"norad_id": 33613, "name": "FENGYUN 1C DEB", "group": "fengyun-1c-debris", "lat": -44.008292118927294, "lon": -123.4724864380968, "alt_km": 807.1027366470144, "timestamp": "2025-12-19T06:59:44.195055+00:00", "meta": {"OBJECT_NAME": "FENGYUN 1C DEB", "OBJECT_ID": "1999-025DCW", "EPOCH": "2025-12-16T22:39:46.027872", "MEAN_MOTION": 14.33243029, "ECCENTRICITY": 0.00302029, "INCLINATION": 98.6973, "RA_OF_ASC_NODE": 62.6736, "ARG_OF_PERICENTER": 76.3387, "MEAN_ANOMALY": 284.1157, "EPHEMERIS_TYPE": 0, "CLASSIFICATION_TYPE": "U", "NORAD_CAT_ID": 33613, "ELEMENT_SET_NO": 999, "REV_AT_EPOCH": 64570, "BSTAR": 0.001526734, "MEAN_MOTION_DOT": 4.177e-05, "MEAN_MOTION_DDOT": 0}, "tle": {"line1": "1 33613U 99025DCW 25350.94428273  .00004177  00000+0  15267-2 0  9996", "line2": "2 33613  98.6973  62.6736 0030202  76.3387 284.1157 14.33243029645702"}}, "geometry": {"type": "Point", "coordinates": [-123.4724864380968, -44.008292118927294]}}]}